SPACEMOBILE-008         
1 69589U 26139A   26198.00266902  .00000250  00000+0  31052-4 0  9990
2 69589  52.9950 127.2012 0005124  60.7952 299.3551 15.12803490  4499
SPACEMOBILE-009         
1 69590U 26139B   26198.00475904  .00000281  00000+0  32868-4 0  9996
2 69590  52.9941 127.2084 0005392  56.7740 303.3767 15.12696869  4492
SPACEMOBILE-010         
1 69591U 26139C   26198.00807093  .00000490  00000+0  44833-4 0  9992
2 69591  52.9949 127.2323 0005326  48.7149 311.4300 15.12530556  4503
